{
  "type": "FeatureCollection",
  "features": [
    {
      "type": "Feature",
      "properties": {
        "norad_id": 66603,
        "name": "STARLINK-36048",
        "group": "last-30-days",
        "lat": 23.02587895496782,
        "lon": -63.26731719001416,
        "alt_km": 440.75608923641266,
        "timestamp": "2025-12-21T03:56:49.614390+00:00",
        "meta_object_name": "STARLINK-36048",
        "meta_object_id": "2025-270R",
        "meta_epoch": "2025-12-20T17:59:10.200768",
        "meta_mean_motion": 15.40737844,
        "meta_eccentricity": 8.63e-05,
        "meta_inclination": 42.9995,
        "meta_ra_of_asc_node": 146.2607,
        "meta_arg_of_pericenter": 310.7905,
        "meta_mean_anomaly": 49.2876,
        "meta_ephemeris_type": 0,
        "meta_classification_type": "U",
        "meta_norad_cat_id": 66603,
        "meta_element_set_no": 999,
        "meta_rev_at_epoch": 548,
        "meta_bstar": 0.0010368,
        "meta_mean_motion_dot": 0.00043305,
        "meta_mean_motion_ddot": 0,
        "tle_line1": "1 66603U 25270R   25354.74942362  .00043305  00000+0  10368-2 0  9997",
        "tle_line2": "2 66603  42.9995 146.2607 0000863 310.7905  49.2876 15.40737844  5485"
      },
      "geometry": {
        "type": "Point",
        "coordinates": [
          -63.26731719001416,
          23.02587895496782
        ]
      }
    },
    {
      "type": "Feature",
      "properties": {
        "norad_id": 66604,
        "name": "STARLINK-35977",
        "group": "last-30-days",
        "lat": 6.951334626986062,
        "lon": -43.70556153815547,
        "alt_km": 443.22705347904866,
        "timestamp": "2025-12-21T03:56:49.614399+00:00",
        "meta_object_name": "STARLINK-35977",
        "meta_object_id": "2025-270S",
        "meta_epoch": "2025-12-20T20:00:01.999008",
        "meta_mean_motion": 15.40664645,
        "meta_eccentricity": 0.0002027,
        "meta_inclination": 43.0002,
        "meta_ra_of_asc_node": 145.7209,
        "meta_arg_of_pericenter": 274.9644,
        "meta_mean_anomaly": 216.0875,
        "meta_ephemeris_type": 0,
        "meta_classification_type": "U",
        "meta_norad_cat_id": 66604,
        "meta_element_set_no": 999,
        "meta_rev_at_epoch": 570,
        "meta_bstar": 0.0019103,
        "meta_mean_motion_dot": 0.00080246,
        "meta_mean_motion_ddot": 0,
        "tle_line1": "1 66604U 25270S   25354.83335647  .00080246  00000+0  19103-2 0  9991",
        "tle_line2": "2 66604  43.0002 145.7209 0002027 274.9644 216.0875 15.40664645  5700"
      },
      "geometry": {
        "type": "Point",
        "coordinates": [
          -43.70556153815547,
          6.951334626986062
        ]
      }
    },
    {
      "type": "Feature",
      "properties": {
        "norad_id": 66605,
        "name": "STARLINK-36052",
        "group": "last-30-days",
        "lat": -37.88720946286891,
        "lon": 20.248583524256283,
        "alt_km": 446.04177074244217,
        "timestamp": "2025-12-21T03:56:49.614408+00:00",
        "meta_object_name": "STARLINK-36052",
        "meta_object_id": "2025-270T",
        "meta_epoch": "2025-12-20T20:00:01.999008",
        "meta_mean_motion": 15.40659977,
        "meta_eccentricity": 0.0002218,
        "meta_inclination": 43.0001,
        "meta_ra_of_asc_node": 145.539,
        "meta_arg_of_pericenter": 284.0218,
        "meta_mean_anomaly": 281.5634,
        "meta_ephemeris_type": 0,
        "meta_classification_type": "U",
        "meta_norad_cat_id": 66605,
        "meta_element_set_no": 999,
        "meta_rev_at_epoch": 570,
        "meta_bstar": 0.0018536,
        "meta_mean_motion_dot": 0.0007782,
        "meta_mean_motion_ddot": 0,
        "tle_line1": "1 66605U 25270T   25354.83335647  .00077820  00000+0  18536-2 0  9995",
        "tle_line2": "2 66605  43.0001 145.5390 0002218 284.0218 281.5634 15.40659977  5702"
      },
      "geometry": {
        "type": "Point",
        "coordinates": [
          20.248583524256283,
          -37.88720946286891
        ]
      }
    },
    {
      "type": "Feature",
      "properties": {
        "norad_id": 66606,
        "name": "STARLINK-36063",
        "group": "last-30-days",
        "lat": -7.791149750421707,
        "lon": 134.9275890024271,
        "alt_km": 414.36850671389584,
        "timestamp": "2025-12-21T03:56:49.614418+00:00",
        "meta_object_name": "STARLINK-36063",
        "meta_object_id": "2025-270U",
        "meta_epoch": "2025-12-19T11:48:20.511648",
        "meta_mean_motion": 15.50662232,
        "meta_eccentricity": 0.0001816,
        "meta_inclination": 42.9987,
        "meta_ra_of_asc_node": 153.1595,
        "meta_arg_of_pericenter": 282.0515,
        "meta_mean_anomaly": 78.0141,
        "meta_ephemeris_type": 0,
        "meta_classification_type": "U",
        "meta_norad_cat_id": 66606,
        "meta_element_set_no": 999,
        "meta_rev_at_epoch": 539,
        "meta_bstar": 0.00079676,
        "meta_mean_motion_dot": 0.0004682,
        "meta_mean_motion_ddot": 0,
        "tle_line1": "1 66606U 25270U   25353.49190407  .00046820  00000+0  79676-3 0  9999",
        "tle_line2": "2 66606  42.9987 153.1595 0001816 282.0515  78.0141 15.50662232  5393"
      },
      "geometry": {
        "type": "Point",
        "coordinates": [
          134.9275890024271,
          -7.791149750421707
        ]
      }
    },
    {
      "type": "Feature",
      "properties": {
        "norad_id": 66607,
        "name": "STARLINK-35993",
        "group": "last-30-days",
        "lat": -41.562072615784714,
        "lon": 35.6835982742805,
        "alt_km": 446.1979527204503,
        "timestamp": "2025-12-21T03:56:49.614427+00:00",
        "meta_object_name": "STARLINK-35993",
        "meta_object_id": "2025-270V",
        "meta_epoch": "2025-12-20T20:00:01.999008",
        "meta_mean_motion": 15.4065663,
        "meta_eccentricity": 0.0001808,
        "meta_inclination": 42.9999,
        "meta_ra_of_asc_node": 145.5091,
        "meta_arg_of_pericenter": 275.3427,
        "meta_mean_anomaly": 302.6859,
        "meta_ephemeris_type": 0,
        "meta_classification_type": "U",
        "meta_norad_cat_id": 66607,
        "meta_element_set_no": 999,
        "meta_rev_at_epoch": 560,
        "meta_bstar": 0.0017685,
        "meta_mean_motion_dot": 0.00074187,
        "meta_mean_motion_ddot": 0,
        "tle_line1": "1 66607U 25270V   25354.83335647  .00074187  00000+0  17685-2 0  9994",
        "tle_line2": "2 66607  42.9999 145.5091 0001808 275.3427 302.6859 15.40656630  5601"
      },
      "geometry": {
        "type": "Point",
        "coordinates": [
          35.6835982742805,
          -41.562072615784714
        ]
      }
    },
    {
      "type": "Feature",
      "properties": {
        "norad_id": 66608,
        "name": "STARLINK-36036",
        "group": "last-30-days",
        "lat": -6.6985701955073145,
        "lon": 136.12574781121543,
        "alt_km": 414.63451153557344,
        "timestamp": "2025-12-21T03:56:49.614436+00:00",
        "meta_object_name": "STARLINK-36036",
        "meta_object_id": "2025-270W",
        "meta_epoch": "2025-12-19T11:47:53.026080",
        "meta_mean_motion": 15.50612484,
        "meta_eccentricity": 0.0001538,
        "meta_inclination": 42.999,
        "meta_ra_of_asc_node": 153.1562,
        "meta_arg_of_pericenter": 266.4602,
        "meta_mean_anomaly": 93.6082,
        "meta_ephemeris_type": 0,
        "meta_classification_type": "U",
        "meta_norad_cat_id": 66608,
        "meta_element_set_no": 999,
        "meta_rev_at_epoch": 523,
        "meta_bstar": 0.0010303,
        "meta_mean_motion_dot": 0.00060643,
        "meta_mean_motion_ddot": 0,
        "tle_line1": "1 66608U 25270W   25353.49158595  .00060643  00000+0  10303-2 0  9993",
        "tle_line2": "2 66608  42.9990 153.1562 0001538 266.4602  93.6082 15.50612484  5231"
      },
      "geometry": {
        "type": "Point",
        "coordinates": [
          136.12574781121543,
          -6.6985701955073145
        ]
      }
    },
    {
      "type": "Feature",
      "properties": {
        "norad_id": 66609,
        "name": "STARLINK-36034",
        "group": "last-30-days",
        "lat": -6.297506526097578,
        "lon": 136.56593776337496,
        "alt_km": 418.68721515325706,
        "timestamp": "2025-12-21T03:56:49.614445+00:00",
        "meta_object_name": "STARLINK-36034",
        "meta_object_id": "2025-270X",
        "meta_epoch": "2025-12-20T17:09:50.095296",
        "meta_mean_motion": 15.50362019,
        "meta_eccentricity": 0.0004855,
        "meta_inclination": 42.9992,
        "meta_ra_of_asc_node": 145.9955,
        "meta_arg_of_pericenter": 131.0652,
        "meta_mean_anomaly": 229.0628,
        "meta_ephemeris_type": 0,
        "meta_classification_type": "U",
        "meta_norad_cat_id": 66609,
        "meta_element_set_no": 999,
        "meta_rev_at_epoch": 542,
        "meta_bstar": 0.0011128,
        "meta_mean_motion_dot": 0.00065002,
        "meta_mean_motion_ddot": 0,
        "tle_line1": "1 66609U 25270X   25354.71516314  .00065002  00000+0  11128-2 0  9997",
        "tle_line2": "2 66609  42.9992 145.9955 0004855 131.0652 229.0628 15.50362019  5424"
      },
      "geometry": {
        "type": "Point",
        "coordinates": [
          136.56593776337496,
          -6.297506526097578
        ]
      }
    }
  ]
}